1 45361U 20019B   22365.20612493  .00005540  00000-0  39037-3 0  9995
2 45361  53.0552 334.1919 0001922  52.3414 307.7749 15.06414902154496
1 45361U 20019B   22365.20612493  .00005540  00000-0  39037-3 0  9995
2 45361  53.0552 334.1919 0001922  52.3414 307.7749 15.06414902154496
1 45361U 20019B   22365.60421901  .00005689  00000-0  40042-3 0  9993
2 45361  53.0544 332.4055 0002084  47.5716 312.5449 15.06407799154554
1 45361U 20019B   22365.60421901  .00005689  00000-0  40042-3 0  9993
2 45361  53.0544 332.4055 0002084  47.5716 312.5449 15.06407799154554
1 45361U 20019B   23001.20134357  .00000145  00000-0  28653-4 0  9990
2 45361  53.0541 329.7246 0002064  54.8391 305.2791 15.06396677154641
1 45361U 20019B   23001.59942725 -.00005599  00000-0 -35738-3 0  9999
2 45361  53.0532 327.9364 0002024  37.7701 322.3429 15.06386219154709
1 45361U 20019B   23002.26289692 -.00000337  00000-0 -37399-5 0  9993
2 45361  53.0537 324.9589 0001860  46.1576 313.9567 15.06395048154801
1 45361U 20019B   23002.59463023  .00003176  00000-0  23203-3 0  9990
2 45361  53.0536 323.4697 0001851  46.6633 313.4510 15.06400971154853
1 45361U 20019B   23002.86002204  .00004175  00000-0  29902-3 0  9992
2 45361  53.0539 322.2790 0001885  45.9281 314.1863 15.06397295154892
1 45361U 20019B   23003.58983856  .00006589  00000-0  46078-3 0  9997
2 45361  53.0536 319.0026 0001894  48.4344 311.6807 15.06404942155005
1 45361U 20019B   23003.58983856  .00006589  00000-0  46078-3 0  9997
2 45361  53.0536 319.0026 0001894  48.4344 311.6807 15.06404942155005
1 45361U 20019B   23004.12061418  .00003256  00000-0  23739-3 0  9996
2 45361  53.0536 316.6197 0001880  50.8739 309.2417 15.06400322155083
1 45361U 20019B   23004.58504198  .00003251  00000-0  23701-3 0  9997
2 45361  53.0540 314.5346 0001881  51.3750 308.7407 15.06403170155156
1 45361U 20019B   23004.85042851  .00004164  00000-0  29823-3 0  9995
2 45361  53.0540 313.3428 0001884  54.6542 305.4623 15.06405608155198
1 45361U 20019B   23005.24849949  .00012534  00000-0  85820-3 0  9991
2 45361  53.0539 311.5562 0001950  55.3294 304.7879 15.06427900155252
1 45361U 20019B   23005.24849949  .00012534  00000-0  85820-3 0  9991
2 45361  53.0539 311.5562 0001950  55.3294 304.7879 15.06427900155252
1 45361U 20019B   23005.58022957  .00004754  00000-0  33761-3 0  9992
2 45361  53.0530 310.0654 0001990  59.7341 300.3845 15.06423866155302
1 45361U 20019B   23006.24369685 -.00001246  00000-0 -64772-4 0  9990
2 45361  53.0545 307.0886 0001503  40.2104 319.8996 15.06404431155403
1 45361U 20019B   23006.84082798 -.00003462  00000-0 -21367-3 0  9997
2 45361  53.0540 304.4067 0001834  59.3484 300.7685 15.06391206155497
1 45361U 20019B   23006.90717384 -.00002404  00000-0 -14257-3 0  9995
2 45361  53.0539 304.1095 0001968  61.2650 298.8536 15.06395463155501
1 45361U 20019B   23007.10621320 -.00000200  00000-0  54781-5 0  9991
2 45361  53.0540 303.2165 0001898  56.5810 303.5361 15.06399551155533
1 45361U 20019B   23007.10621320 -.00000200  00000-0  54781-5 0  9991
2 45361  53.0540 303.2165 0001898  56.5810 303.5361 15.06399551155533
1 45361U 20019B   23007.83604063  .00000294  00000-0  38669-4 0  9994
2 45361  53.0539 299.9408 0001853  55.9213 304.1952 15.06382478155648
1 45361U 20019B   23007.83604063  .00000294  00000-0  38669-4 0  9994
2 45361  53.0539 299.9408 0001853  55.9213 304.1952 15.06382478155648
1 45361U 20019B   23008.49950736  .00006938  00000-0  48415-3 0  9998
2 45361  53.0538 296.9630 0001894  58.0694 302.0479 15.06402178155745
1 45361U 20019B   23008.49950736  .00006938  00000-0  48415-3 0  9998
2 45361  53.0538 296.9630 0001894  58.0694 302.0479 15.06402178155745
1 45361U 20019B   23009.56105638  .00003682  00000-0  26595-3 0  9998
2 45361  53.0528 292.1976 0001789  61.5718 298.5451 15.06403313155903
1 45361U 20019B   23009.56105638  .00003682  00000-0  26595-3 0  9998
2 45361  53.0528 292.1976 0001789  61.5718 298.5451 15.06403313155903
1 45361U 20019B   23010.15817976  .00001069  00000-0  90638-4 0  9997
2 45361  53.0534 289.5170 0001677  53.1894 306.9249 15.06397556155993
1 45361U 20019B   23010.48991435  .00000115  00000-0  26649-4 0  9998
2 45361  53.0536 288.0277 0001632  58.1943 301.9204 15.06398787156048
1 45361U 20019B   23011.48511203  .00003951  00000-0  28395-3 0  9990
2 45361  53.0534 283.5594 0001616  61.5645 298.5507 15.06409090156190
1 45361U 20019B   23011.48511203  .00003951  00000-0  28395-3 0  9990
2 45361  53.0534 283.5594 0001616  61.5645 298.5507 15.06409090156190
1 45361U 20019B   23011.75049661  .00004131  00000-0  29598-3 0  9991
2 45361  53.0538 282.3670 0001526  69.9698 290.1455 15.06411683156232
1 45361U 20019B   23012.08223373  .00001897  00000-0  14622-3 0  9990
2 45361  53.0540 280.8778 0001590  64.0001 296.1152 15.06403584156288
1 45361U 20019B   23012.67936179  .00008527  00000-0  59085-3 0  9999
2 45361  53.0531 278.1983 0001612  66.5159 293.6000 15.06388181156371
1 45361U 20019B   23012.94474331  .00000431  00000-0  47864-4 0  9995
2 45361  53.0540 277.0051 0001606  66.7114 293.4044 15.06399318156416
1 45361U 20019B   23013.40917340 -.00000979  00000-0 -46845-4 0  9996
2 45361  53.0546 274.9207 0001503  63.5080 296.6063 15.06400049156481
1 45361U 20019B   23013.74089726  .00000567  00000-0  56918-4 0  9994
2 45361  53.0534 273.4317 0001453  61.0284 299.0851 15.06409912156533
1 45361U 20019B   23013.74089726  .00000567  00000-0  56918-4 0  9994
2 45361  53.0534 273.4317 0001453  61.0284 299.0851 15.06409912156533
1 45361U 20019B   23014.07261916  .00003046  00000-0  22317-3 0  9994
2 45361  53.0538 271.9426 0001547  62.1842 297.9303 15.06420950156586
1 45361U 20019B   23014.40437842 -.00003349  00000-0 -20610-3 0  9996
2 45361  53.0537 270.4533 0002164  70.7719 289.3504 15.06385056156633
1 45361U 20019B   23015.00152759 -.00006622  00000-0 -42660-3 0  9990
2 45361  53.0524 267.7733 0001693  78.4654 281.6525 15.06352551156721
1 45361U 20019B   23015.39960680 -.00000632  00000-0 -23554-4 0  9999
2 45361  53.0522 265.9873 0000983  95.4343 264.6758 15.06367821156780
1 45361U 20019B   23015.39960680 -.00000632  00000-0 -23554-4 0  9999
2 45361  53.0522 265.9873 0000983  95.4343 264.6758 15.06367821156780
1 45361U 20019B   23015.93038739  .00020914  00000-0  14190-2 0  9997
2 45361  53.0520 263.6035 0001485  89.5520 270.5639 15.06394142156861
1 45361U 20019B   23015.99673336  .00024686  00000-0  16703-2 0  9993
2 45361  53.0538 263.3051 0001436  86.3292 273.7861 15.06401069156872
1 45361U 20019B   23016.39481483  .00011996  00000-0  82264-3 0  9994
2 45361  53.0541 261.5162 0002146  78.7724 281.3506 15.06409056156935
1 45361U 20019B   23016.39481483  .00011996  00000-0  82264-3 0  9994
2 45361  53.0541 261.5162 0002146  78.7724 281.3506 15.06409056156935
1 45361U 20019B   23016.92558839  .00004297  00000-0  30715-3 0  9993
2 45361  53.0515 259.1359 0001928  80.5033 279.6173 15.06403478157010
1 45361U 20019B   23016.92558839  .00004297  00000-0  30715-3 0  9993
2 45361  53.0515 259.1359 0001928  80.5033 279.6173 15.06403478157010
1 45361U 20019B   23017.39001379  .00004162  00000-0  29810-3 0  9992
2 45361  53.0522 257.0510 0001616  81.2650 278.8522 15.06405903157082
1 45361U 20019B   23018.05347942  .00003638  00000-0  26294-3 0  9995
2 45361  53.0529 254.0714 0001603  87.1846 272.9327 15.06407800157187
1 45361U 20019B   23018.38521375  .00004213  00000-0  30149-3 0  9999
2 45361  53.0528 252.5823 0001586  86.3524 273.7647 15.06406942157230
1 45361U 20019B   23018.91598401  .00003998  00000-0  28707-3 0  9998
2 45361  53.0523 250.1996 0001434  85.6864 274.4289 15.06410489157311
1 45361U 20019B   23019.64580178  .00000471  00000-0  50479-4 0  9996
2 45361  53.0522 246.9228 0001297 102.7538 257.3596 15.06400121157422
1 45361U 20019B   23020.30927305  .00000018  00000-0  20079-4 0  9998
2 45361  53.0527 243.9427 0001376  97.8604 262.2541 15.06395902157527
1 45361U 20019B   23020.90639155  .00001070  00000-0  90679-4 0  9999
2 45361  53.0521 241.2642 0001440  94.0256 266.0897 15.06403524157611
1 45361U 20019B   23021.56986383  .00003544  00000-0  25671-3 0  9997
2 45361  53.0535 238.2868 0001502 103.2458 256.8699 15.06399823157712
1 45361U 20019B   23022.63141562  .00001390  00000-0  11218-3 0  9997
2 45361  53.0520 233.5193 0001776  86.8560 273.2632 15.06396443157870
1 45361U 20019B   23023.82565206  .00001609  00000-0  12687-3 0  9998
2 45361  53.0517 228.1579 0001095  88.8046 271.3069 15.06405370158053
1 45361U 20019B   23024.42277733  .00002407  00000-0  18044-3 0  9990
2 45361  53.0516 225.4770 0001164  90.2604 269.8518 15.06396738158147
1 45361U 20019B   23025.35163169  .00000885  00000-0  78267-4 0  9992
2 45361  53.0525 221.3075 0001208  87.1370 272.9758 15.06399911158286
1 45361U 20019B   23025.81604284  .00002801  00000-0  20674-3 0  9999
2 45361  53.0528 219.2227 0001010  88.2439 271.8665 15.06417501158352
1 45361U 20019B   23025.81604284  .00002801  00000-0  20674-3 0  9999
2 45361  53.0528 219.2227 0001010  88.2439 271.8665 15.06417501158352
1 45361U 20019B   23026.81126248  .00000430  00000-0  47739-4 0  9997
2 45361  53.0527 214.7553 0001059  95.2777 264.8333 15.06393664158503
1 45361U 20019B   23027.47472655 -.00002156  00000-0 -12592-3 0  9993
2 45361  53.0529 211.7769 0000994  99.3876 260.7225 15.06395627158600
1 45361U 20019B   23027.80646632 -.00000830  00000-0 -36829-4 0  9995
2 45361  53.0530 210.2868 0000969 100.5053 259.6045 15.06396515158659
1 45361U 20019B   23028.20454656  .00000013  00000-0  19755-4 0  9993
2 45361  53.0529 208.4999 0001015  94.8076 265.3029 15.06395851158719
1 45361U 20019B   23028.27089379  .00000097  00000-0  25367-4 0  9994
2 45361  53.0531 208.2018 0001016  93.7394 266.3711 15.06395522158729
1 45361U 20019B   23028.86801586  .00001921  00000-0  14782-3 0  9996
2 45361  53.0530 205.5210 0000957 100.4778 259.6319 15.06395244158817
1 45361U 20019B   23029.46514438  .00001653  00000-0  12987-3 0  9997
2 45361  53.0530 202.8404 0000938  95.8144 264.2952 15.06389443158904
1 45361U 20019B   23029.79687791  .00001679  00000-0  13159-3 0  9996
2 45361  53.0531 201.3510 0000930  95.4347 264.6748 15.06392533158956
1 45361U 20019B   23030.46034484  .00001269  00000-0  10408-3 0  9996
2 45361  53.0531 198.3724 0000938  93.6623 266.4473 15.06397645159059
1 45361U 20019B   23030.59303691  .00001445  00000-0  11587-3 0  9994
2 45361  53.0530 197.7767 0000950  93.0766 267.0332 15.06399650159075
1 45361U 20019B   23030.59303691  .00001445  00000-0  11587-3 0  9994
2 45361  53.0530 197.7767 0000950  93.0766 267.0332 15.06399650159075
1 45361U 20019B   23031.19016313  .00000754  00000-0  69497-4 0  9999
2 45361  53.0529 195.0965 0000944  89.5854 270.5243 15.06394937159168
1 45361U 20019B   23031.45555056  .00001146  00000-0  95807-4 0  9990
2 45361  53.0530 193.9052 0000911  89.4375 270.6718 15.06394560159200
1 45361U 20019B   23031.58824269  .00001364  00000-0  11042-3 0  9999
2 45361  53.0529 193.3095 0000942  88.8441 271.2656 15.06396873159229
